ELEKTRO-L 1 (GOMS 2)    
1 37344U 11001A   25129.09319600 -.00000130  00000+0  00000+0 0  9994
2 37344   8.7676  58.5170 0004909  19.7961 166.2204  1.00252465 52438
RESOURCESAT-2           
1 37387U 11015A   25130.49704104  .00000133  00000+0  80936-4 0  9992
2 37387  98.8100 194.6783 0004798 302.7908  57.2806 14.21578065729499
YOUTHSAT                
1 37388U 11015B   25129.97101119  .00000273  00000+0  13306-3 0  9992
2 37388  98.3239 118.4017 0015860  86.4883 285.8285 14.25376830730191
APRIZESAT 6             
1 37793U 11044F   25130.48178549  .00001068  00000+0  16094-3 0  9993
2 37793  98.2638  27.5003 0042590 294.2683 245.7841 14.76028867737870
JUGNU                   
1 37839U 11058B   25130.47726576  .00000510  00000+0  12713-3 0  9992
2 37839  19.9601 234.6783 0018591 309.9626 131.3558 14.13593086702083
SRMSAT                  
1 37841U 11058D   25130.29035178  .00000486  00000+0  12038-3 0  9998
2 37841  19.9734 337.8432 0011797  91.8306  85.7102 14.11426328701058
SUOMI NPP               
1 37849U 11061A   25130.51496519  .00000104  00000+0  70096-4 0  9991
2 37849  98.7566  70.1167 0002385  60.5838 299.5576 14.19530263701302
YAOGAN-12               
1 37875U 11066B   25130.52412854  .00008255  00000+0  34470-3 0  9996
2 37875  97.1689 182.7424 0010871 221.2214 138.8203 15.23830886751261
ZIYUAN 3-1 (ZY 3-1)     
1 38046U 12001A   25130.49388636  .00019617  00000+0  33137-3 0  9996
2 38046  97.1994 195.0368 0004756  66.8387 293.3367 15.51642996741366
BEIDOU-2 M4             
1 38251U 12018B   25129.33030699 -.00000077  00000+0  00000+0 0  9996
2 38251  56.0014 317.6972 0011378 274.6989  85.1772  1.86232232 88428
ARIRANG-3 (KOMPSAT-3)   
1 38338U 12025B   25130.49443021  .00000642  00000+0  13633-3 0  9993
2 38338  98.3043  83.8775 0005740 291.4355  68.6233 14.62463132692600
HORYU-2                 
1 38340U 12025D   25130.30452242  .00004578  00000+0  51164-3 0  9994
2 38340  98.1746 244.0990 0009688  63.6813 296.5396 14.87437571699170
CSSWE                   
1 38761U 12048D   25129.85877128  .00013815  00000+0  48210-3 0  9990
2 38761  64.6656 356.2397 0114899 282.4875  76.3417 15.23730235 54573
CP5                     
1 38763U 12048F   25130.43472592  .00011591  00000+0  49706-3 0  9994
2 38763  64.6573  30.6304 0129259 286.8653  71.8329 15.15781874 55492
METOP-B                 
1 38771U 12049A   25130.48220876  .00000154  00000+0  90009-4 0  9991
2 38771  98.5791 185.5421 0002056  93.5426 266.5987 14.21492361656042
SJ-9A                   
1 38860U 12056A   25130.53064438  .00001341  00000+0  16495-3 0  9999
2 38860  97.6239 113.6875 0027184 139.7405 220.5830 14.84319520679048
COSMOS 2484             
1 39059U 13001C   25129.95037724  .00000028  00000+0  13004-3 0  9997
2 39059  82.4981 112.6457 0025889 190.0523 170.0042 12.42921794558461
SARAL                   
1 39086U 13009A   25130.51009097  .00000150  00000+0  71119-4 0  9999
2 39086  98.5539 317.2485 0002896  58.2383 301.9083 14.32696503637943
AAUSAT 3                
1 39087U 13009B   25130.46423217  .00000954  00000+0  32174-3 0  9997
2 39087  98.3673 318.7295 0011254 347.9894  12.1024 14.39182498639554
STRAND-1                
1 39090U 13009E   25130.03419126  .00000410  00000+0  15333-3 0  9993
2 39090  98.3827 315.5330 0008707   4.6134 355.5131 14.36795020639187
BRITE-AUSTRIA           
1 39091U 13009F   25130.09868039  .00000294  00000+0  11519-3 0  9993
2 39091  98.3885 314.8535 0010384  10.9096 349.2314 14.36294792639196
UNIBRITE                
1 39092U 13009G   25130.07490185  .00000292  00000+0  11469-3 0  9997
2 39092  98.3924 314.8393 0009239   8.0563 352.0770 14.36166441639138
AIST-2 (RS-43)          
1 39133U 13015D   25130.48541321  .00006180  00000+0  28735-3 0  9990
2 39133  64.8690 128.0723 0030589 284.1958  75.5772 15.20464521663007
GAOFEN-1                
1 39150U 13018A   25130.52132532  .00000887  00000+0  13439-3 0  9990
2 39150  97.9505 204.7023 0019058 120.7251 239.5839 14.76477162648860
NEE-01 PEGASO           
1 39151U 13018B   25130.31230713  .00004259  00000+0  43962-3 0  9999
2 39151  98.0683 258.4956 0014355  53.9653 306.2893 14.90657061650633
TURKSAT-3USAT           
1 39152U 13018C   25130.31960031  .00005208  00000+0  50793-3 0  9998
2 39152  97.8075 218.5672 0012688   8.2891 351.8535 14.92819442650928
CUBEBUG-1 (CAPITAN BETO)
1 39153U 13018D   25130.42184330  .00004587  00000+0  44061-3 0  9991
2 39153  98.1147 269.9190 0013286  43.5665 316.6600 14.93516162650953
PROBA-V                 
1 39159U 13021A   25130.44149077  .00000089  00000+0  56891-4 0  9990
2 39159  98.3204 124.9461 0003254 219.3715 140.7228 14.23478344623818
ESTCUBE 1               
1 39161U 13021C   25130.11702245  .00002131  00000+0  29087-3 0  9995
2 39161  97.7823 192.5922 0007184 243.3416 116.7060 14.79614183645427
ARIRANG-5 (KOMPSAT-5)   
1 39227U 13042A   25130.52426524  .00002329  00000+0  17044-3 0  9998
2 39227  97.6207 317.8514 0004044  79.1422 281.0259 15.04551323643371
GONETS-M 5              
1 39249U 13048A   25130.22419077  .00000008  00000+0 -15995-4 0  9997
2 39249  82.4829 234.5567 0015968  16.0696 344.0887 12.42863752528987
GONETS-M 7              
1 39251U 13048C   25130.51817070  .00000013  00000+0  20655-4 0  9991
2 39251  82.4894 237.0859 0016789  16.3090 343.8526 12.42896028528997
FENGYUN 3C              
1 39260U 13052A   25130.53831234  .00000109  00000+0  76645-4 0  9992
2 39260  98.4535 119.0592 0015914 101.9163 258.3797 14.15618265601663
CASSIOPE                
1 39265U 13055A   25129.87846279  .00022435 -40233-6  36047-3 0  9997
2 39265  80.9432 184.8635 0395118 312.5086  44.3366 14.96667442606805
APRIZESAT 7             
1 39416U 13066A   25129.83391318  .00001846  00000+0  19449-3 0  9992
2 39416  97.7190  85.7375 0038466 107.1520 253.3915 14.90022727621131
ZACUBE-1 (TSHEPISOSAT)  
1 39417U 13066B   25130.43054978  .00005691  00000+0  49754-3 0  9993
2 39417  97.7782  87.6150 0045441 150.3132 210.0683 14.96359323620403
APRIZESAT 8             
1 39425U 13066K   25130.41217692  .00001212  00000+0  14091-3 0  9995
2 39425  97.7743  80.1941 0047297 169.0188 191.2072 14.86385771620085
CINEMA-3 (KHUSAT-2)     
1 39426U 13066L   25130.52057406  .00002143  00000+0  29256-3 0  9996
2 39426  97.8475  48.5897 0094335  75.9184 285.2490 14.76593206615268
TRITON-1                
1 39427U 13066M   25130.49959574  .00003270  00000+0  41741-3 0  9995
2 39427  97.8388  45.0383 0096439 103.8000 257.3966 14.78863918614707
DELFI-N3XT              
1 39428U 13066N   25129.76590501  .00007387  00000+0  75745-3 0  9999
2 39428  97.8363  47.7724 0087374 101.6928 259.4109 14.87895833614491
GOMX-1                  
1 39430U 13066Q   25130.48627730  .00001794  00000+0  28617-3 0  9990
2 39430  97.6871 350.9942 0131302 289.0520  69.6502 14.67529872610991
BRITE-PL1 (LEM)         
1 39431U 13066R   25130.39224525  .00001552  00000+0  32129-3 0  9991
2 39431  97.7492 267.8394 0192947 183.6790 176.3000 14.50516139605727
ICUBE-1                 
1 39432U 13066S   25129.86551206  .00011069  00000+0  60828-3 0  9992
2 39432  97.5341 110.3354 0018924 298.6401  61.2927 15.14119022623164
HUMSAT-D                
1 39433U 13066T   25130.43603648  .00038781  00000+0  11941-2 0  9997
2 39433  97.5021 125.8066 0009731 208.0529 152.0189 15.33490621625634
VELOX-PII               
1 39438U 13066Y   25129.81094594  .00003575  00000+0  36862-3 0  9999
2 39438  97.8278  78.0786 0054898 236.2293 123.3688 14.89754976618845
FIRST-MOVE              
1 39439U 13066Z   25129.85100457  .00035530  00000+0  13450-2 0  9993
2 39439  97.7422 103.0044 0030105  95.7772 264.6899 15.26411976621318
CUBEBUG-2 (LO-74)       
1 39440U 13066AA  25129.84964139  .00004782  00000+0  48847-3 0  9993
2 39440  97.8478  74.6306 0060527 281.9845  77.4591 14.89722706618068
NEE-02 KRYSAOR          
1 39441U 13066AB  25129.77744291  .00003222  00000+0  37606-3 0  9990
2 39441  97.8541  68.5972 0067894 312.0183  47.5263 14.84231295616319
FUNCUBE-1 (AO-73)       
1 39444U 13066AE  25130.43716494  .00008155  00000+0  61666-3 0  9995
2 39444  97.7802  92.2461 0042630 127.1965 233.3163 15.01877279619654
HINCUBE                 
1 39445U 13066AF  25130.39766457  .00006451  00000+0  49856-3 0  9999
2 39445  97.7521  91.5589 0044250 134.0892 226.3988 15.01081761619146
UWE-3                   
1 39446U 13066AG  25129.83652325  .00003378  00000+0  32491-3 0  9997
2 39446  97.8219  80.9414 0052143 219.7905 139.9486 14.92670554617320
SMDC ONE 2.4            
1 39469U 13072H   25130.41361946  .00010491  00000+0  54028-3 0  9995
2 39469 120.4933 251.8249 0168112 302.5025  55.9895 15.05734289 56929
CP8 (IPEX)              
1 39471U 13072K   25130.18072423  .00006844  00000+0  41530-3 0  9992
2 39471 120.4662 217.7111 0180942 293.3447  64.8675 14.99309406 54621
COSMOS 2488             
1 39483U 13076A   25130.55016089  .00000020  00000+0  72870-4 0  9998
2 39483  82.4859  59.6107 0017896 253.5395 106.3718 12.42862206516063
COSMOS 2489             
1 39484U 13076B   25130.20060753  .00000002  00000+0 -54004-4 0  9998
2 39484  82.4893  61.0830 0019660 254.7128 105.1778 12.42862536516081
COSMOS 2490             
1 39485U 13076C   25130.49381548  .00000021  00000+0  81133-4 0  9991
2 39485  82.4843  59.1422 0019941 271.0420  88.8375 12.42861208516064
AIST-1 (RS-41)          
1 39492U 13078C   25130.49828497  .00002120  00000+0  19410-3 0  9990
2 39492  82.4137 300.4495 0017330 181.3594 178.7583 14.94387119617408
KAZEOSAT 1              
1 39731U 14024A   25130.51254485  .00000259  00000+0  91905-4 0  9992
2 39731  98.3598 207.0067 0001201  95.7328 264.3998 14.42036997580578
COSMOS 2496             
1 39761U 14028A   25130.53565677  .00000045  00000+0  25269-3 0  9991
2 39761  82.4486   0.9306 0018820 237.0445 122.8826 12.42889310497559
